[Satellite]
VERSION=1.1
NAME=INTELSAT 805 (IS-805)
NICKNAME=INTELSAT 805 (IS-805)
TLE1=1 25371U 98037A   17186.14282119 -.00000035  00000-0  00000-0 0  9995
TLE2=2 25371   0.0527  90.6088 0003306  20.1247  33.0055  1.00273168 69776
